STARLINK-35340          
1 66022U 25232T   25312.16668980 -.02091173  00000+0 -47399-1 0  9994
2 66022  53.1590 310.4065 0001380 100.7510 169.9301 15.46083175  3985
STARLINK-35394          
1 66023U 25232U   25312.18163641  .00086798  00000+0  15489-2 0  9990
2 66023  53.1590 310.3222 0000581 110.6559 249.4512 15.49355731  4808
STARLINK-35410          
1 66024U 25232V   25312.18093115  .00087838  00000+0  15666-2 0  9992
2 66024  53.1592 310.3176 0001329 107.9001 252.2153 15.49364438  4808
STARLINK-35280          
1 66025U 25232W   25312.18128000  .00082607  00000+0  14749-2 0  9995
2 66025  53.1591 310.3199 0002223  86.4125 273.7138 15.49362413  4807
STARLINK-34812          
1 66026U 25232X   25312.18058698  .00081862  00000+0  14623-2 0  9994
2 66026  53.1592 310.3161 0001495  99.1480 260.9698 15.49352473  4795
STARLINK-35341          
1 66027U 25232Y   25312.16668980 -.02082673  00000+0 -45115-1 0  9998
2 66027  53.1597 310.0575 0001138  70.9550  12.7093 15.47368811  3989
STARLINK-35339          
1 66028U 25232Z   25312.16668980 -.01057028  00000+0 -20660-1 0  9992
2 66028  53.1595 310.0508 0001447  74.9075  12.1353 15.49673642  3923
STARLINK-35399          
1 66029U 25232AA  25312.16668980 -.00084297  00000+0 -15227-2 0  9994
2 66029  53.1596 310.0471 0001082  89.8512 359.1849 15.49331989  3929
STARLINK-35431          
1 66030U 25232AB  25312.16668980 -.00068701  00000+0 -12374-2 0  9998
2 66030  53.1596 310.0421 0001160  96.2214 354.7316 15.49323781  3925
STARLINK-35326          
1 66031U 25232AC  25312.16668980 -.00069945  00000+0 -12600-2 0  9992
2 66031  53.1596 310.0390 0001158  93.6571 359.2088 15.49326736  3980
STARLINK-35311          
1 66032U 25232AD  25312.16668980 -.00077266  00000+0 -13938-2 0  9993
2 66032  53.1598 310.0343 0001264  92.5807   2.2014 15.49330908  3989
QIANFAN-91              
1 66033U 25233A   25312.16533744  .00000923  00000+0  38092-3 0  9997
2 66033  88.9954  66.0114 0016769 141.2766 218.9633 14.25922639  3117
