CCSDS_OMM_VERS = 2.0
CREATION_DATE  = 
ORIGINATOR     = 

OBJECT_NAME    = STARLINK-35340
OBJECT_ID      = 2025-232T
CENTER_NAME    = EARTH
REF_FRAME      = TEME
TIME_SYSTEM    = UTC
MEAN_ELEMENT_THEORY = SGP/SGP4

EPOCH          = 2025-11-08T04:00:01.998720
MEAN_MOTION    = 15.46083175
ECCENTRICITY   = .000138
INCLINATION    = 53.1590
RA_OF_ASC_NODE = 310.4065
ARG_OF_PERICENTER = 100.7510
MEAN_ANOMALY   = 169.9301

EPHEMERIS_TYPE = 0
CLASSIFICATION_TYPE = U
NORAD_CAT_ID   = 66022
ELEMENT_SET_NO = 999
REV_AT_EPOCH   = 398
BSTAR          = -.47399E-1
MEAN_MOTION_DOT = -.2091173E-1
MEAN_MOTION_DDOT = 0

CCSDS_OMM_VERS = 2.0
CREATION_DATE  = 
ORIGINATOR     = 

OBJECT_NAME    = STARLINK-35394
OBJECT_ID      = 2025-232U
CENTER_NAME    = EARTH
REF_FRAME      = TEME
TIME_SYSTEM    = UTC
MEAN_ELEMENT_THEORY = SGP/SGP4

EPOCH          = 2025-11-08T04:21:33.385824
MEAN_MOTION    = 15.49355731
ECCENTRICITY   = .0000581
INCLINATION    = 53.1590
RA_OF_ASC_NODE = 310.3222
ARG_OF_PERICENTER = 110.6559
MEAN_ANOMALY   = 249.4512

EPHEMERIS_TYPE = 0
CLASSIFICATION_TYPE = U
NORAD_CAT_ID   = 66023
ELEMENT_SET_NO = 999
REV_AT_EPOCH   = 480
BSTAR          = .15489E-2
MEAN_MOTION_DOT = .86798E-3
MEAN_MOTION_DDOT = 0

CCSDS_OMM_VERS = 2.0
CREATION_DATE  = 
ORIGINATOR     = 

OBJECT_NAME    = STARLINK-35410
OBJECT_ID      = 2025-232V
CENTER_NAME    = EARTH
REF_FRAME      = TEME
TIME_SYSTEM    = UTC
MEAN_ELEMENT_THEORY = SGP/SGP4

EPOCH          = 2025-11-08T04:20:32.451360
MEAN_MOTION    = 15.49364438
ECCENTRICITY   = .0001329
INCLINATION    = 53.1592
RA_OF_ASC_NODE = 310.3176
ARG_OF_PERICENTER = 107.9001
MEAN_ANOMALY   = 252.2153

EPHEMERIS_TYPE = 0
CLASSIFICATION_TYPE = U
NORAD_CAT_ID   = 66024
ELEMENT_SET_NO = 999
REV_AT_EPOCH   = 480
BSTAR          = .15666E-2
MEAN_MOTION_DOT = .87838E-3
MEAN_MOTION_DDOT = 0

CCSDS_OMM_VERS = 2.0
CREATION_DATE  = 
ORIGINATOR     = 

OBJECT_NAME    = STARLINK-35280
OBJECT_ID      = 2025-232W
CENTER_NAME    = EARTH
REF_FRAME      = TEME
TIME_SYSTEM    = UTC
MEAN_ELEMENT_THEORY = SGP/SGP4

EPOCH          = 2025-11-08T04:21:02.592000
MEAN_MOTION    = 15.49362413
ECCENTRICITY   = .0002223
INCLINATION    = 53.1591
RA_OF_ASC_NODE = 310.3199
ARG_OF_PERICENTER = 86.4125
MEAN_ANOMALY   = 273.7138

EPHEMERIS_TYPE = 0
CLASSIFICATION_TYPE = U
NORAD_CAT_ID   = 66025
ELEMENT_SET_NO = 999
REV_AT_EPOCH   = 480
BSTAR          = .14749E-2
MEAN_MOTION_DOT = .82607E-3
MEAN_MOTION_DDOT = 0

CCSDS_OMM_VERS = 2.0
CREATION_DATE  = 
ORIGINATOR     = 

OBJECT_NAME    = STARLINK-34812
OBJECT_ID      = 2025-232X
CENTER_NAME    = EARTH
REF_FRAME      = TEME
TIME_SYSTEM    = UTC
MEAN_ELEMENT_THEORY = SGP/SGP4

EPOCH          = 2025-11-08T04:20:02.715072
MEAN_MOTION    = 15.49352473
ECCENTRICITY   = .0001495
INCLINATION    = 53.1592
RA_OF_ASC_NODE = 310.3161
ARG_OF_PERICENTER = 99.1480
MEAN_ANOMALY   = 260.9698

EPHEMERIS_TYPE = 0
CLASSIFICATION_TYPE = U
NORAD_CAT_ID   = 66026
ELEMENT_SET_NO = 999
REV_AT_EPOCH   = 479
BSTAR          = .14623E-2
MEAN_MOTION_DOT = .81862E-3
MEAN_MOTION_DDOT = 0

CCSDS_OMM_VERS = 2.0
CREATION_DATE  = 
ORIGINATOR     = 

OBJECT_NAME    = STARLINK-35341
OBJECT_ID      = 2025-232Y
CENTER_NAME    = EARTH
REF_FRAME      = TEME
TIME_SYSTEM    = UTC
MEAN_ELEMENT_THEORY = SGP/SGP4

EPOCH          = 2025-11-08T04:00:01.998720
MEAN_MOTION    = 15.47368811
ECCENTRICITY   = .0001138
INCLINATION    = 53.1597
RA_OF_ASC_NODE = 310.0575
ARG_OF_PERICENTER = 70.9550
MEAN_ANOMALY   = 12.7093

EPHEMERIS_TYPE = 0
CLASSIFICATION_TYPE = U
NORAD_CAT_ID   = 66027
ELEMENT_SET_NO = 999
REV_AT_EPOCH   = 398
BSTAR          = -.45115E-1
MEAN_MOTION_DOT = -.2082673E-1
MEAN_MOTION_DDOT = 0

CCSDS_OMM_VERS = 2.0
CREATION_DATE  = 
ORIGINATOR     = 

OBJECT_NAME    = STARLINK-35339
OBJECT_ID      = 2025-232Z
CENTER_NAME    = EARTH
REF_FRAME      = TEME
TIME_SYSTEM    = UTC
MEAN_ELEMENT_THEORY = SGP/SGP4

EPOCH          = 2025-11-08T04:00:01.998720
MEAN_MOTION    = 15.49673642
ECCENTRICITY   = .0001447
INCLINATION    = 53.1595
RA_OF_ASC_NODE = 310.0508
ARG_OF_PERICENTER = 74.9075
MEAN_ANOMALY   = 12.1353

EPHEMERIS_TYPE = 0
CLASSIFICATION_TYPE = U
NORAD_CAT_ID   = 66028
ELEMENT_SET_NO = 999
REV_AT_EPOCH   = 392
BSTAR          = -.2066E-1
MEAN_MOTION_DOT = -.1057028E-1
MEAN_MOTION_DDOT = 0

CCSDS_OMM_VERS = 2.0
CREATION_DATE  = 
ORIGINATOR     = 

OBJECT_NAME    = STARLINK-35399
OBJECT_ID      = 2025-232AA
CENTER_NAME    = EARTH
REF_FRAME      = TEME
TIME_SYSTEM    = UTC
MEAN_ELEMENT_THEORY = SGP/SGP4

EPOCH          = 2025-11-08T04:00:01.998720
MEAN_MOTION    = 15.49331989
ECCENTRICITY   = .0001082
INCLINATION    = 53.1596
RA_OF_ASC_NODE = 310.0471
ARG_OF_PERICENTER = 89.8512
MEAN_ANOMALY   = 359.1849

EPHEMERIS_TYPE = 0
CLASSIFICATION_TYPE = U
NORAD_CAT_ID   = 66029
ELEMENT_SET_NO = 999
REV_AT_EPOCH   = 392
BSTAR          = -.15227E-2
MEAN_MOTION_DOT = -.84297E-3
MEAN_MOTION_DDOT = 0

CCSDS_OMM_VERS = 2.0
CREATION_DATE  = 
ORIGINATOR     = 

OBJECT_NAME    = STARLINK-35431
OBJECT_ID      = 2025-232AB
CENTER_NAME    = EARTH
REF_FRAME      = TEME
TIME_SYSTEM    = UTC
MEAN_ELEMENT_THEORY = SGP/SGP4

EPOCH          = 2025-11-08T04:00:01.998720
MEAN_MOTION    = 15.49323781
ECCENTRICITY   = .000116
INCLINATION    = 53.1596
RA_OF_ASC_NODE = 310.0421
ARG_OF_PERICENTER = 96.2214
MEAN_ANOMALY   = 354.7316

EPHEMERIS_TYPE = 0
CLASSIFICATION_TYPE = U
NORAD_CAT_ID   = 66030
ELEMENT_SET_NO = 999
REV_AT_EPOCH   = 392
BSTAR          = -.12374E-2
MEAN_MOTION_DOT = -.68701E-3
MEAN_MOTION_DDOT = 0

CCSDS_OMM_VERS = 2.0
CREATION_DATE  = 
ORIGINATOR     = 

OBJECT_NAME    = STARLINK-35326
OBJECT_ID      = 2025-232AC
CENTER_NAME    = EARTH
REF_FRAME      = TEME
TIME_SYSTEM    = UTC
MEAN_ELEMENT_THEORY = SGP/SGP4

EPOCH          = 2025-11-08T04:00:01.998720
MEAN_MOTION    = 15.49326736
ECCENTRICITY   = .0001158
INCLINATION    = 53.1596
RA_OF_ASC_NODE = 310.0390
ARG_OF_PERICENTER = 93.6571
MEAN_ANOMALY   = 359.2088

EPHEMERIS_TYPE = 0
CLASSIFICATION_TYPE = U
NORAD_CAT_ID   = 66031
ELEMENT_SET_NO = 999
REV_AT_EPOCH   = 398
BSTAR          = -.126E-2
MEAN_MOTION_DOT = -.69945E-3
MEAN_MOTION_DDOT = 0

CCSDS_OMM_VERS = 2.0
CREATION_DATE  = 
ORIGINATOR     = 

OBJECT_NAME    = STARLINK-35311
OBJECT_ID      = 2025-232AD
CENTER_NAME    = EARTH
REF_FRAME      = TEME
TIME_SYSTEM    = UTC
MEAN_ELEMENT_THEORY = SGP/SGP4

EPOCH          = 2025-11-08T04:00:01.998720
MEAN_MOTION    = 15.49330908
ECCENTRICITY   = .0001264
INCLINATION    = 53.1598
RA_OF_ASC_NODE = 310.0343
ARG_OF_PERICENTER = 92.5807
MEAN_ANOMALY   = 2.2014

EPHEMERIS_TYPE = 0
CLASSIFICATION_TYPE = U
NORAD_CAT_ID   = 66032
ELEMENT_SET_NO = 999
REV_AT_EPOCH   = 398
BSTAR          = -.13938E-2
MEAN_MOTION_DOT = -.77266E-3
MEAN_MOTION_DDOT = 0

CCSDS_OMM_VERS = 2.0
CREATION_DATE  = 
ORIGINATOR     = 

OBJECT_NAME    = QIANFAN-91
OBJECT_ID      = 2025-233A
CENTER_NAME    = EARTH
REF_FRAME      = TEME
TIME_SYSTEM    = UTC
MEAN_ELEMENT_THEORY = SGP/SGP4

EPOCH          = 2025-11-08T03:58:05.154816
MEAN_MOTION    = 14.25922639
ECCENTRICITY   = .0016769
INCLINATION    = 88.9954
RA_OF_ASC_NODE = 66.0114
ARG_OF_PERICENTER = 141.2766
MEAN_ANOMALY   = 218.9633

EPHEMERIS_TYPE = 0
CLASSIFICATION_TYPE = U
NORAD_CAT_ID   = 66033
ELEMENT_SET_NO = 999
REV_AT_EPOCH   = 311
BSTAR          = .38092E-3
MEAN_MOTION_DOT = .923E-5
MEAN_MOTION_DDOT = 0

